[{"OBJECT_NAME":"PE2_FLT1 (TYVAK-0261)","OBJECT_ID":"2024-043H","EPOCH":"2026-03-09T22:11:30.005376","MEAN_MOTION":14.96611647,"ECCENTRICITY":0.00060821,"INCLINATION":97.8224,"RA_OF_ASC_NODE":199.4267,"ARG_OF_PERICENTER":22.6188,"MEAN_ANOMALY":337.53,"EPHEMERIS_TYPE":0,"CLASSIFICATION_TYPE":"U","NORAD_CAT_ID":59105,"ELEMENT_SET_NO":999,"REV_AT_EPOCH":10980,"BSTAR":0.00036312112,"MEAN_MOTION_DOT":4.08e-5,"MEAN_MOTION_DDOT":0},{"OBJECT_NAME":"COSMOS 2251 DEB","OBJECT_ID":"1993-036AGL","EPOCH":"2026-03-09T14:26:26.254464","MEAN_MOTION":14.99089752,"ECCENTRICITY":0.0026997,"INCLINATION":74.0375,"RA_OF_ASC_NODE":36.8586,"ARG_OF_PERICENTER":98.2741,"MEAN_ANOMALY":23.5602,"EPHEMERIS_TYPE":0,"CLASSIFICATION_TYPE":"U","NORAD_CAT_ID":35023,"ELEMENT_SET_NO":999,"REV_AT_EPOCH":89579,"BSTAR":0.0019164,"MEAN_MOTION_DOT":0.00023496,"MEAN_MOTION_DDOT":0}]
